[{"OBJECT_NAME":"DONGPO 10","OBJECT_ID":"2022-167H","EPOCH":"2026-03-09T22:44:56.137344","MEAN_MOTION":15.322785,"ECCENTRICITY":0.00061655,"INCLINATION":97.685,"RA_OF_ASC_NODE":235.0962,"ARG_OF_PERICENTER":106.9526,"MEAN_ANOMALY":253.2392,"EPHEMERIS_TYPE":0,"CLASSIFICATION_TYPE":"U","NORAD_CAT_ID":54689,"ELEMENT_SET_NO":999,"REV_AT_EPOCH":18015,"BSTAR":0.00049390523,"MEAN_MOTION_DOT":0.00015333,"MEAN_MOTION_DDOT":0},{"OBJECT_NAME":"STARLINK-35316","OBJECT_ID":"2025-216J","EPOCH":"2026-03-09T21:17:54.638016","MEAN_MOTION":15.30210448,"ECCENTRICITY":8.139e-5,"INCLINATION":53.159,"RA_OF_ASC_NODE":331.9965,"ARG_OF_PERICENTER":45.0164,"MEAN_ANOMALY":315.0902,"EPHEMERIS_TYPE":0,"CLASSIFICATION_TYPE":"U","NORAD_CAT_ID":65742,"ELEMENT_SET_NO":999,"REV_AT_EPOCH":2549,"BSTAR":0.00096658214,"MEAN_MOTION_DOT":0.00028387,"MEAN_MOTION_DDOT":0}]
